CCSDS_OMM_VERS = 2.0
CREATION_DATE  = 
ORIGINATOR     = 

OBJECT_NAME    = TRANSPORTER-15DL
OBJECT_ID      = 2025-276DL
CENTER_NAME    = EARTH
REF_FRAME      = TEME
TIME_SYSTEM    = UTC
MEAN_ELEMENT_THEORY = SGP/SGP4

EPOCH          = 2025-12-26T15:08:32.813376
MEAN_MOTION    = 15.18748482
ECCENTRICITY   = .00028978
INCLINATION    = 97.4426
RA_OF_ASC_NODE = 72.2094
ARG_OF_PERICENTER = 93.9561
MEAN_ANOMALY   = 266.2005

EPHEMERIS_TYPE = 0
CLASSIFICATION_TYPE = U
NORAD_CAT_ID   = 66772
ELEMENT_SET_NO = 999
REV_AT_EPOCH   = 423
BSTAR          = .61491926E-3
MEAN_MOTION_DOT = .1272E-3
MEAN_MOTION_DDOT = 0

CCSDS_OMM_VERS = 2.0
CREATION_DATE  = 
ORIGINATOR     = 

OBJECT_NAME    = TRANSPORTER-15DM
OBJECT_ID      = 2025-276DM
CENTER_NAME    = EARTH
REF_FRAME      = TEME
TIME_SYSTEM    = UTC
MEAN_ELEMENT_THEORY = SGP/SGP4

EPOCH          = 2025-12-26T15:10:50.661120
MEAN_MOTION    = 15.18573340
ECCENTRICITY   = .00030436
INCLINATION    = 97.4422
RA_OF_ASC_NODE = 72.2063
ARG_OF_PERICENTER = 94.8055
MEAN_ANOMALY   = 265.3527

EPHEMERIS_TYPE = 0
CLASSIFICATION_TYPE = U
NORAD_CAT_ID   = 66773
ELEMENT_SET_NO = 999
REV_AT_EPOCH   = 423
BSTAR          = .53606879E-3
MEAN_MOTION_DOT = .11022E-3
MEAN_MOTION_DDOT = 0

CCSDS_OMM_VERS = 2.0
CREATION_DATE  = 
ORIGINATOR     = 

OBJECT_NAME    = TRANSPORTER-15DN
OBJECT_ID      = 2025-276DN
CENTER_NAME    = EARTH
REF_FRAME      = TEME
TIME_SYSTEM    = UTC
MEAN_ELEMENT_THEORY = SGP/SGP4

EPOCH          = 2025-12-26T15:09:54.844992
MEAN_MOTION    = 15.18634787
ECCENTRICITY   = .00029644
INCLINATION    = 97.4408
RA_OF_ASC_NODE = 72.2024
ARG_OF_PERICENTER = 93.2283
MEAN_ANOMALY   = 266.9290

EPHEMERIS_TYPE = 0
CLASSIFICATION_TYPE = U
NORAD_CAT_ID   = 66774
ELEMENT_SET_NO = 999
REV_AT_EPOCH   = 423
BSTAR          = .40105918E-3
MEAN_MOTION_DOT = .8241E-4
MEAN_MOTION_DDOT = 0

CCSDS_OMM_VERS = 2.0
CREATION_DATE  = 
ORIGINATOR     = 

OBJECT_NAME    = PHI 1
OBJECT_ID      = 2025-276DP
CENTER_NAME    = EARTH
REF_FRAME      = TEME
TIME_SYSTEM    = UTC
MEAN_ELEMENT_THEORY = SGP/SGP4

EPOCH          = 2025-12-26T15:08:34.420416
MEAN_MOTION    = 15.18702464
ECCENTRICITY   = .00026093
INCLINATION    = 97.4332
RA_OF_ASC_NODE = 72.1786
ARG_OF_PERICENTER = 59.0368
MEAN_ANOMALY   = 301.1122

EPHEMERIS_TYPE = 0
CLASSIFICATION_TYPE = U
NORAD_CAT_ID   = 66775
ELEMENT_SET_NO = 999
REV_AT_EPOCH   = 423
BSTAR          = .52006175E-3
MEAN_MOTION_DOT = .1073E-3
MEAN_MOTION_DDOT = 0

CCSDS_OMM_VERS = 2.0
CREATION_DATE  = 
ORIGINATOR     = 

OBJECT_NAME    = TRANSPORTER-15DQ
OBJECT_ID      = 2025-276DQ
CENTER_NAME    = EARTH
REF_FRAME      = TEME
TIME_SYSTEM    = UTC
MEAN_ELEMENT_THEORY = SGP/SGP4

EPOCH          = 2025-12-26T15:07:52.931136
MEAN_MOTION    = 15.18754025
ECCENTRICITY   = .00027688
INCLINATION    = 97.4372
RA_OF_ASC_NODE = 72.1921
ARG_OF_PERICENTER = 77.4164
MEAN_ANOMALY   = 282.7380

EPHEMERIS_TYPE = 0
CLASSIFICATION_TYPE = U
NORAD_CAT_ID   = 66776
ELEMENT_SET_NO = 999
REV_AT_EPOCH   = 423
BSTAR          = .47120053E-3
MEAN_MOTION_DOT = .9729E-4
MEAN_MOTION_DDOT = 0

CCSDS_OMM_VERS = 2.0
CREATION_DATE  = 
ORIGINATOR     = 

OBJECT_NAME    = TRANSPORTER-15DR
OBJECT_ID      = 2025-276DR
CENTER_NAME    = EARTH
REF_FRAME      = TEME
TIME_SYSTEM    = UTC
MEAN_ELEMENT_THEORY = SGP/SGP4

EPOCH          = 2025-12-26T15:03:42.886944
MEAN_MOTION    = 15.19008561
ECCENTRICITY   = .00034709
INCLINATION    = 97.4460
RA_OF_ASC_NODE = 72.2261
ARG_OF_PERICENTER = 104.0843
MEAN_ANOMALY   = 256.0778

EPHEMERIS_TYPE = 0
CLASSIFICATION_TYPE = U
NORAD_CAT_ID   = 66777
ELEMENT_SET_NO = 999
REV_AT_EPOCH   = 423
BSTAR          = .66987843E-3
MEAN_MOTION_DOT = .13971E-3
MEAN_MOTION_DDOT = 0

CCSDS_OMM_VERS = 2.0
CREATION_DATE  = 
ORIGINATOR     = 

OBJECT_NAME    = TRANSPORTER-15DS
OBJECT_ID      = 2025-276DS
CENTER_NAME    = EARTH
REF_FRAME      = TEME
TIME_SYSTEM    = UTC
MEAN_ELEMENT_THEORY = SGP/SGP4

EPOCH          = 2025-12-18T19:26:21.991200
MEAN_MOTION    = 15.16535337
ECCENTRICITY   = .00032319
INCLINATION    = 97.4427
RA_OF_ASC_NODE = 64.4586
ARG_OF_PERICENTER = 41.3734
MEAN_ANOMALY   = 318.7744

EPHEMERIS_TYPE = 0
CLASSIFICATION_TYPE = U
NORAD_CAT_ID   = 66778
ELEMENT_SET_NO = 999
REV_AT_EPOCH   = 304
BSTAR          = .25483693E-3
MEAN_MOTION_DOT = .4904E-4
MEAN_MOTION_DDOT = 0

CCSDS_OMM_VERS = 2.0
CREATION_DATE  = 
ORIGINATOR     = 

OBJECT_NAME    = STARLINK-35867
OBJECT_ID      = 2025-278A
CENTER_NAME    = EARTH
REF_FRAME      = TEME
TIME_SYSTEM    = UTC
MEAN_ELEMENT_THEORY = SGP/SGP4

EPOCH          = 2025-12-26T14:00:04.000032
MEAN_MOTION    = 15.40674376
ECCENTRICITY   = .00013971
INCLINATION    = 43.0002
RA_OF_ASC_NODE = 169.4117
ARG_OF_PERICENTER = 289.5620
MEAN_ANOMALY   = 59.6609

EPHEMERIS_TYPE = 0
CLASSIFICATION_TYPE = U
NORAD_CAT_ID   = 66791
ELEMENT_SET_NO = 999
REV_AT_EPOCH   = 518
BSTAR          = .40101499E-3
MEAN_MOTION_DOT = .1647E-3
MEAN_MOTION_DDOT = 0

CCSDS_OMM_VERS = 2.0
CREATION_DATE  = 
ORIGINATOR     = 

OBJECT_NAME    = STARLINK-35990
OBJECT_ID      = 2025-278B
CENTER_NAME    = EARTH
REF_FRAME      = TEME
TIME_SYSTEM    = UTC
MEAN_ELEMENT_THEORY = SGP/SGP4

EPOCH          = 2025-12-26T14:00:04.000032
MEAN_MOTION    = 15.50534176
ECCENTRICITY   = .00015892
INCLINATION    = 42.9999
RA_OF_ASC_NODE = 169.2662
ARG_OF_PERICENTER = 260.2402
MEAN_ANOMALY   = 148.9823

EPHEMERIS_TYPE = 0
CLASSIFICATION_TYPE = U
NORAD_CAT_ID   = 66792
ELEMENT_SET_NO = 999
REV_AT_EPOCH   = 518
BSTAR          = .63220469E-3
MEAN_MOTION_DOT = .36862E-3
MEAN_MOTION_DDOT = 0

CCSDS_OMM_VERS = 2.0
CREATION_DATE  = 
ORIGINATOR     = 

OBJECT_NAME    = STARLINK-36051
OBJECT_ID      = 2025-278C
CENTER_NAME    = EARTH
REF_FRAME      = TEME
TIME_SYSTEM    = UTC
MEAN_ELEMENT_THEORY = SGP/SGP4

EPOCH          = 2025-12-26T14:00:04.000032
MEAN_MOTION    = 15.50520677
ECCENTRICITY   = .00015028
INCLINATION    = 42.9998
RA_OF_ASC_NODE = 169.2573
ARG_OF_PERICENTER = 260.7336
MEAN_ANOMALY   = 152.3234

EPHEMERIS_TYPE = 0
CLASSIFICATION_TYPE = U
NORAD_CAT_ID   = 66793
ELEMENT_SET_NO = 999
REV_AT_EPOCH   = 508
BSTAR          = .14185212E-2
MEAN_MOTION_DOT = .83596E-3
MEAN_MOTION_DDOT = 0

CCSDS_OMM_VERS = 2.0
CREATION_DATE  = 
ORIGINATOR     = 

OBJECT_NAME    = STARLINK-36062
OBJECT_ID      = 2025-278D
CENTER_NAME    = EARTH
REF_FRAME      = TEME
TIME_SYSTEM    = UTC
MEAN_ELEMENT_THEORY = SGP/SGP4

EPOCH          = 2025-12-26T12:14:09.237696
MEAN_MOTION    = 15.50597285
ECCENTRICITY   = .00019947
INCLINATION    = 42.9990
RA_OF_ASC_NODE = 169.6901
ARG_OF_PERICENTER = 269.7082
MEAN_ANOMALY   = 90.3550

EPHEMERIS_TYPE = 0
CLASSIFICATION_TYPE = U
NORAD_CAT_ID   = 66794
ELEMENT_SET_NO = 999
REV_AT_EPOCH   = 399
BSTAR          = .13293694E-2
MEAN_MOTION_DOT = .78485E-3
MEAN_MOTION_DDOT = 0

CCSDS_OMM_VERS = 2.0
CREATION_DATE  = 
ORIGINATOR     = 

OBJECT_NAME    = STARLINK-36047
OBJECT_ID      = 2025-278E
CENTER_NAME    = EARTH
REF_FRAME      = TEME
TIME_SYSTEM    = UTC
MEAN_ELEMENT_THEORY = SGP/SGP4

EPOCH          = 2025-12-26T14:00:04.000032
MEAN_MOTION    = 15.43584603
ECCENTRICITY   = .00018343
INCLINATION    = 43.0003
RA_OF_ASC_NODE = 169.3018
ARG_OF_PERICENTER = 251.2027
MEAN_ANOMALY   = 144.4520

EPHEMERIS_TYPE = 0
CLASSIFICATION_TYPE = U
NORAD_CAT_ID   = 66795
ELEMENT_SET_NO = 999
REV_AT_EPOCH   = 508
BSTAR          = -.46124122E-1
MEAN_MOTION_DOT = -.1903116E-1
MEAN_MOTION_DDOT = 0

