TRANSPORTER-15DL        
1 66772U 25276DL  25360.63093534  .00012720  00000+0  61492-3 0  9995
2 66772  97.4426  72.2094 0002897  93.9561 266.2005 15.18748482  4233
TRANSPORTER-15DM        
1 66773U 25276DM  25360.63253080  .00011022  00000+0  53607-3 0  9993
2 66773  97.4422  72.2063 0003043  94.8055 265.3527 15.18573340  4236
TRANSPORTER-15DN        
1 66774U 25276DN  25360.63188478  .00008241  00000+0  40106-3 0  9991
2 66774  97.4408  72.2024 0002964  93.2283 266.9290 15.18634787  4232
PHI 1                   
1 66775U 25276DP  25360.63095394  .00010730  00000+0  52006-3 0  9994
2 66775  97.4332  72.1786 0002609  59.0368 301.1122 15.18702464  4237
TRANSPORTER-15DQ        
1 66776U 25276DQ  25360.63047374  .00009729  00000+0  47120-3 0  9997
2 66776  97.4372  72.1921 0002768  77.4164 282.7380 15.18754025  4237
TRANSPORTER-15DR        
1 66777U 25276DR  25360.62757971  .00013971  00000+0  66988-3 0  9995
2 66777  97.4460  72.2261 0003470 104.0843 256.0778 15.19008561  4239
TRANSPORTER-15DS        
1 66778U 25276DS  25352.80997675  .00004904  00000+0  25484-3 0  9996
2 66778  97.4427  64.4586 0003231  41.3734 318.7744 15.16535337  3043
STARLINK-35867          
1 66791U 25278A   25360.58337963  .00016470  00000+0  40101-3 0  9999
2 66791  43.0002 169.4117 0001397 289.5620  59.6609 15.40674376  5183
STARLINK-35990          
1 66792U 25278B   25360.58337963  .00036862  00000+0  63220-3 0  9994
2 66792  42.9999 169.2662 0001589 260.2402 148.9823 15.50534176  5181
STARLINK-36051          
1 66793U 25278C   25360.58337963  .00083596  00000+0  14185-2 0  9996
2 66793  42.9998 169.2573 0001502 260.7336 152.3234 15.50520677  5083
STARLINK-36062          
1 66794U 25278D   25360.50982914  .00078485  00000+0  13294-2 0  9992
2 66794  42.9990 169.6901 0001994 269.7082  90.3550 15.50597285  3996
STARLINK-36047          
1 66795U 25278E   25360.58337963 -.01903116  00000+0 -46124-1 0  9997
2 66795  43.0003 169.3018 0001834 251.2027 144.4520 15.43584603  5080
